NORAD_CAT_ID,OBJECT_NAME,OBJECT_TYPE,EPOCH,MEAN_MOTION,ECCENTRICITY,INCLINATION,RA_OF_ASC_NODE,ARG_OF_PERICENTER,MEAN_ANOMALY,BSTAR,MEAN_MOTION_DOT,MEAN_MOTION_DDOT,TLE_LINE0,TLE_LINE1,TLE_LINE2,SEMIMAJOR_AXIS,PERIOD,APOGEE,PERIGEE,DECAYED
51987.0,STARLINK-3644,PAYLOAD,2022-05-02 14:00:01,15.32292747,0.0001713,53.2175,237.0742,38.7323,40.0574,-0.0236,-0.00690772,0.0,0 STARLINK-3644,1 51987U 22025AH  22122.58334491 -.00690772  00000-0 -23600-1 0  9992,2 51987  53.2175 237.0742 0001713  38.7323  40.0574 15.32292747  3665,6847.111,93.977,470.149,467.80300000000005,0.0
51987.0,STARLINK-3644,PAYLOAD,2022-05-02 20:00:01,15.31925543,0.0001283,53.2174,235.9127,56.2069,322.244,-0.023768,-0.00687856,0.0,0 STARLINK-3644,1 51987U 22025AH  22122.83334491 -.00687856  00000-0 -23768-1 0  9994,2 51987  53.2174 235.9127 0001283  56.2069 322.2440 15.31925543  9740,6848.205,93.999,470.948,469.191,0.0
51987.0,STARLINK-3644,PAYLOAD,2022-05-02 22:00:01,15.31803202,0.0001414,53.2173,235.5251,55.2101,63.1193,-0.023873,-0.00688229,0.0,0 STARLINK-3644,1 51987U 22025AH  22122.91668981 -.00688229  00000-0 -23873-1 0  9999,2 51987  53.2173 235.5251 0001414  55.2101  63.1193 15.31803202  3663,6848.569,94.007,471.403,469.466,0.0
51987.0,STARLINK-3644,PAYLOAD,2022-05-03 14:00:01,15.30825902,0.0001962,53.2175,232.4319,38.5208,156.935,-0.024581,-0.00687395,0.0,0 STARLINK-3644,1 51987U 22025AH  22123.58334491 -.00687395  00000-0 -24581-1 0  9999,2 51987  53.2175 232.4319 0001962  38.5208 156.9350 15.30825902  3651,6851.484,94.067,474.693,472.005,0.0
51987.0,STARLINK-3644,PAYLOAD,2022-05-03 20:00:01,15.304607,0.0001664,53.2173,231.2729,45.0542,88.7423,-0.02489,-0.00688051,0.0,0 STARLINK-3644,1 51987U 22025AH  22123.83334491 -.00688051  00000-0 -24890-1 0  9990,2 51987  53.2173 231.2729 0001664  45.0542  88.7423 15.30460700  9890,6852.574000000001,94.089,475.579,473.299,0.0
51987.0,STARLINK-3644,PAYLOAD,2022-05-03 22:00:00,15.30339456,0.0001616,53.2173,230.8863,50.5506,182.62,-0.025076,-0.00690387,0.0,0 STARLINK-3644,1 51987U 22025AH  22123.91667824 -.00690387  00000-0 -25076-1 0  9990,2 51987  53.2173 230.8863 0001616  50.5506 182.6200 15.30339456  3661,6852.936,94.097,475.908,473.693,0.0
51987.0,STARLINK-3644,PAYLOAD,2022-05-04 14:00:01,15.29361972,0.0001689,53.2176,227.8002,43.9244,262.9158,-0.025783,-0.00688756,0.0,0 STARLINK-3644,1 51987U 22025AH  22124.58334491 -.00688756  00000-0 -25783-1 0  9997,2 51987  53.2176 227.8002 0001689  43.9244 262.9158 15.29361972  3682,6855.855,94.157,478.878,476.562,0.0
51987.0,STARLINK-3644,PAYLOAD,2022-05-04 20:00:01,15.28997364,0.0001525,53.2172,226.6436,53.6354,190.2892,-0.026171,-0.00691073,0.0,0 STARLINK-3644,1 51987U 22025AH  22124.83335648 -.00691073  00000-0 -26171-1 0  9998,2 51987  53.2172 226.6436 0001525  53.6354 190.2892 15.28997364 10051,6856.945,94.179,479.856,477.765,0.0
51987.0,STARLINK-3644,PAYLOAD,2022-05-04 22:00:01,15.28874863,0.0001403,53.2175,226.2577,52.997,289.862,-0.026262,-0.00690857,0.0,0 STARLINK-3644,1 51987U 22025AH  22124.91668981 -.00690857  00000-0 -26262-1 0  9996,2 51987  53.2175 226.2577 0001403  52.9970 289.8620 15.28874863  3668,6857.312,94.187,480.139,478.214,0.0
51987.0,STARLINK-3644,PAYLOAD,2022-05-05 14:00:01,15.2789896,0.0001871,53.2176,223.1789,34.0324,18.9116,-0.027096,-0.00691694,0.0,0 STARLINK-3644,1 51987U 22025AH  22125.58334491 -.00691694  00000-0 -27096-1 0  9992,2 51987  53.2176 223.1789 0001871  34.0324  18.9116 15.27898960  3667,6860.231,94.247,483.38,480.81300000000016,0.0
51987.0,STARLINK-3644,PAYLOAD,2022-05-05 22:00:00,15.27408782,0.0001476,53.2174,221.6399,49.4642,37.6758,-0.027361,-0.00688261,0.0,0 STARLINK-3644,1 51987U 22025AH  22125.91667824 -.00688261  00000-0 -27361-1 0  9999,2 51987  53.2174 221.6399 0001476  49.4642  37.6758 15.27408782  3668,6861.699000000001,94.277,484.577,482.551,0.0
51987.0,STARLINK-3644,PAYLOAD,2022-05-06 04:00:00,15.27040363,0.0001477,53.2174,220.4859,45.7159,336.6866,-0.027528,-0.00684966,0.0,0 STARLINK-3644,1 51987U 22025AH  22126.16667824 -.00684966  00000-0 -27528-1 0  9990,2 51987  53.2174 220.4859 0001477  45.7159 336.6866 15.27040363 10251,6862.802,94.3,485.681,483.654,0.0
51987.0,STARLINK-3644,PAYLOAD,2022-05-06 14:00:01,15.26432568,0.0002008,53.2175,218.5679,36.0083,117.7602,-0.028209,-0.00688794,0.0,0 STARLINK-3644,1 51987U 22025AH  22126.58334491 -.00688794  00000-0 -28209-1 0  9997,2 51987  53.2175 218.5679 0002008  36.0083 117.7602 15.26432568  3686,6864.624,94.338,487.867,485.111,0.0
51987.0,STARLINK-3644,PAYLOAD,2022-05-07 04:00:00,15.25577576,0.0001575999999999,53.2175,215.8808,47.9889,72.1567,-0.028929,-0.00688266,0.0,0 STARLINK-3644,1 51987U 22025AH  22127.16667824 -.00688266  00000-0 -28929-1 0  9994,2 51987  53.2175 215.8808 0001576  47.9889  72.1567 15.25577576 10404,6867.189,94.39,490.136,487.971,0.0
51987.0,STARLINK-3644,PAYLOAD,2022-05-07 14:00:01,15.24966753,0.0001793,53.2176,213.9671,44.9832,204.3293,-0.029397,-0.00686759,0.0,0 STARLINK-3644,1 51987U 22025AH  22127.58334491 -.00686759  00000-0 -29397-1 0  9996,2 51987  53.2176 213.9671 0001793  44.9832 204.3293 15.24966753  3661,6869.022,94.428,492.119,489.656,0.0
51987.0,STARLINK-3644,PAYLOAD,2022-05-07 22:00:00,15.24480572,0.0001506999999999,53.2174,212.4346,54.3123,225.6748,-0.030016,-0.00698468,0.0,0 STARLINK-3644,1 51987U 22025AH  22127.91667824 -.00698468  00000-0 -30016-1 0  9992,2 51987  53.2174 212.4346 0001507  54.3123 225.6748 15.24480572  3653,6870.483,94.458,493.383,491.312,0.0
51987.0,STARLINK-3644,PAYLOAD,2022-05-08 12:00:00,15.23623294,0.000167,53.2174,209.7584,51.2876,190.9685,-0.03057,-0.00693662,0.0,0 STARLINK-3644,1 51987U 22025AH  22128.50001157 -.00693662  00000-0 -30570-1 0  9995,2 51987  53.2174 209.7584 0001670  51.2876 190.9685 15.23623294 10615,6873.06,94.512,496.072,493.777,0.0
51987.0,STARLINK-3644,PAYLOAD,2022-05-08 14:00:01,15.23502958,0.0001549,53.2176,209.3767,49.0286,290.5468,-0.030804,-0.0069627,0.0,0 STARLINK-3644,1 51987U 22025AH  22128.58334491 -.00696270  00000-0 -30804-1 0  9991,2 51987  53.2176 209.3767 0001549  49.0286 290.5468 15.23502958  3656,6873.420999999999,94.519,496.351,494.222,0.0
51987.0,STARLINK-3644,PAYLOAD,2022-05-08 22:00:00,15.23015162,0.0001466,53.2175,207.8475,48.907,319.5834,-0.031318,-0.00697564,0.0,0 STARLINK-3644,1 51987U 22025AH  22128.91667824 -.00697564  00000-0 -31318-1 0  9995,2 51987  53.2175 207.8475 0001466  48.9070 319.5834 15.23015162  3656,6874.889,94.549,497.762,495.746,0.0
51987.0,STARLINK-3644,PAYLOAD,2022-05-09 12:00:00,15.22160411,0.0001571999999999,53.2174,205.1775,47.5515,280.1265,-0.032077,-0.00696628,0.0,0 STARLINK-3644,1 51987U 22025AH  22129.50001157 -.00696628  00000-0 -32077-1 0  9995,2 51987  53.2174 205.1775 0001572  47.5515 280.1265 15.22160411 10764,6877.462,94.602,500.409,498.246,0.0
51987.0,STARLINK-3644,PAYLOAD,2022-05-09 14:00:01,15.2203802,0.0001625,53.2176,204.7965,44.0504,20.5713,-0.032187,-0.00696502,0.0,0 STARLINK-3644,1 51987U 22025AH  22129.58335648 -.00696502  00000-0 -32187-1 0  9991,2 51987  53.2176 204.7965 0001625  44.0504  20.5713 15.22038020  3655,6877.831,94.61,500.814,498.578,0.0
51987.0,STARLINK-3644,PAYLOAD,2022-05-09 22:00:00,15.21549257,0.0001569,53.2175,203.2707,46.7045,45.00899999999999,-0.032597,-0.00695325,0.0,0 STARLINK-3644,1 51987U 22025AH  22129.91667824 -.00695325  00000-0 -32597-1 0  9999,2 51987  53.2175 203.2707 0001569  46.7045  45.0090 15.21549257  3656,6879.304,94.64,502.24800000000016,500.09,0.0
51987.0,STARLINK-3644,PAYLOAD,2022-05-10 14:00:01,15.20571347,0.0001724,53.2176,200.2267,46.1268,98.1346,-0.033438,-0.00693181,0.0,0 STARLINK-3644,1 51987U 22025AH  22130.58334491 -.00693181  00000-0 -33438-1 0  9998,2 51987  53.2176 200.2267 0001724  46.1268  98.1346 15.20571347  3656,6882.253000000002,94.701,505.305,502.932,0.0
51987.0,STARLINK-3644,PAYLOAD,2022-05-10 18:00:00,15.20323999,0.0001483,53.2167,199.4647,48.81800000000001,288.2159,-0.033441,-0.00688521,0.0,0 STARLINK-3644,1 51987U 22025AH  22130.75001157 -.00688521  00000-0 -33441-1 0  9993,2 51987  53.2167 199.4647 0001483  48.8180 288.2159 15.20323999 10954,6883.0,94.717,505.885,503.844,0.0
51987.0,STARLINK-3644,PAYLOAD,2022-05-10 19:41:16,15.2154394,0.0001872,53.2136,199.1266,66.1933,293.9261,-0.0098406,-0.0021828,0.0,0 STARLINK-3644,1 51987U 22025AH  22130.82033371 -.00218280  00000-0 -98406-2 0  9998,2 51987  53.2136 199.1266 0001872  66.1933 293.9261 15.21543940  9872,6879.32,94.641,502.473,499.897,0.0
51987.0,STARLINK-3644,PAYLOAD,2022-05-11 20:00:01,15.18741354,0.0001611,53.2174,194.5277,50.2285,96.2355,-0.035344,-0.00694454,0.0,0 STARLINK-3644,1 51987U 22025AH  22131.83334491 -.00694454  00000-0 -35344-1 0  9999,2 51987  53.2174 194.5277 0001611  50.2285  96.2355 15.18741354 11124,6887.78,94.815,510.755,508.536,0.0
51987.0,STARLINK-3644,PAYLOAD,2022-05-11 22:00:00,15.186198,0.0001546,53.2176,194.1478,57.0766,185.2409,-0.0355,-0.00695014,0.0,0 STARLINK-3644,1 51987U 22025AH  22131.91667824 -.00695014  00000-0 -35500-1 0  9994,2 51987  53.2176 194.1478 0001546  57.0766 185.2409 15.18619800  1309,6888.148,94.823,511.078,508.948,0.0
51987.0,STARLINK-3644,PAYLOAD,2022-05-12 14:00:01,15.1764054,0.0001491,53.2176,191.1177,59.3638,228.4613,-0.036261,-0.00690377,0.0,0 STARLINK-3644,1 51987U 22025AH  22132.58334491 -.00690377  00000-0 -36261-1 0  9991,2 51987  53.2176 191.1177 0001491  59.3638 228.4613 15.17640540  1305,6891.111,94.884,514.003,511.948,0.0
51987.0,STARLINK-3644,PAYLOAD,2022-05-12 22:00:00,15.17154665,0.000145,53.2176,189.6019,55.1219,254.5771,-0.037018,-0.00694681,0.0,0 STARLINK-3644,1 51987U 22025AH  22132.91667824 -.00694681  00000-0 -37018-1 0  9990,2 51987  53.2176 189.6019 0001450  55.1219 254.5771 15.17154665  1309,6892.581999999999,94.915,515.446,513.448,0.0
